{
  "norad_id": 66232,
  "name": "STARLINK-35753",
  "history": [
    {
      "epoch": "2026-03-28T13:24:36.241920",
      "apogee_km": 476.1793712427807,
      "perigee_km": 474.38651658545314,
      "latitude_deg": -51.67368844075683,
      "longitude_deg": 136.84026880003512,
      "semi_major_axis_km": 6853.419943914117,
      "eccentricity": 0.0001308,
      "inclination_deg": 53.1594,
      "raan_deg": 142.6042,
      "arg_perigee_deg": 81.3966,
      "mean_anomaly_deg": 278.7183,
      "mean_motion_rev_day": 15.30177268
    }
  ]
}