{"fetched_at":"2026-03-29T16:36:15Z","count":15609,"tles":[{"name":"STARLINK-35753","line1":"1 66232U 25244AC  26087.55875280  .00028250  00000+0  96297-3 0  9991","line2":"2 66232  53.1594 142.6042 0001308  81.3966 278.7183 15.30177268 24543","category":"Starlink"}]}